[{"OBJECT_NAME":"STARLINK-32027","OBJECT_ID":"2024-120J","EPOCH":"2026-03-09T23:19:52.029408","MEAN_MOTION":15.30187254,"ECCENTRICITY":0.00010615,"INCLINATION":53.1605,"RA_OF_ASC_NODE":318.2724,"ARG_OF_PERICENTER":74.8828,"MEAN_ANOMALY":285.229,"EPHEMERIS_TYPE":0,"CLASSIFICATION_TYPE":"U","NORAD_CAT_ID":60143,"ELEMENT_SET_NO":999,"REV_AT_EPOCH":9650,"BSTAR":2.1723529e-5,"MEAN_MOTION_DOT":2.84e-6,"MEAN_MOTION_DDOT":0},{"OBJECT_NAME":"ARCSTONE","OBJECT_ID":"2025-135N","EPOCH":"2026-03-09T21:21:29.017152","MEAN_MOTION":15.28638458,"ECCENTRICITY":0.00041199,"INCLINATION":97.4495,"RA_OF_ASC_NODE":185.9194,"ARG_OF_PERICENTER":166.7863,"MEAN_ANOMALY":193.3485,"EPHEMERIS_TYPE":0,"CLASSIFICATION_TYPE":"U","NORAD_CAT_ID":64540,"ELEMENT_SET_NO":999,"REV_AT_EPOCH":3984,"BSTAR":0.00094899777,"MEAN_MOTION_DOT":0.00026427,"MEAN_MOTION_DDOT":0}]
